[{"OBJECT_NAME":"STARLINK-3058","OBJECT_ID":"2021-082J","EPOCH":"2025-07-27T20:47:35.301120","MEAN_MOTION":14.98330555,"ECCENTRICITY":0.0002868,"INCLINATION":70.0004,"RA_OF_ASC_NODE":141.322,"ARG_OF_PERICENTER":266.4251,"MEAN_ANOMALY":93.658,"EPHEMERIS_TYPE":0,"CLASSIFICATION_TYPE":"U","NORAD_CAT_ID":49138,"ELEMENT_SET_NO":999,"REV_AT_EPOCH":21230,"BSTAR":-8.3671e-6,"MEAN_MOTION_DOT":-1.93e-6,"MEAN_MOTION_DDOT":0},{"OBJECT_NAME":"STARLINK-3057","OBJECT_ID":"2021-082K","EPOCH":"2025-07-27T21:34:59.422368","MEAN_MOTION":14.98326775,"ECCENTRICITY":0.0002782,"INCLINATION":70.0005,"RA_OF_ASC_NODE":101.2234,"ARG_OF_PERICENTER":268.9675,"MEAN_ANOMALY":91.1165,"EPHEMERIS_TYPE":0,"CLASSIFICATION_TYPE":"U","NORAD_CAT_ID":49139,"ELEMENT_SET_NO":999,"REV_AT_EPOCH":21329,"BSTAR":-1.2096e-5,"MEAN_MOTION_DOT":-2.37e-6,"MEAN_MOTION_DDOT":0},{"OBJECT_NAME":"STARLINK-3093","OBJECT_ID":"2021-082M","EPOCH":"2025-07-27T12:40:54.499584","MEAN_MOTION":14.98328651,"ECCENTRICITY":0.0003033,"INCLINATION":70.0002,"RA_OF_ASC_NODE":142.1783,"ARG_OF_PERICENTER":269.3637,"MEAN_ANOMALY":90.7175,"EPHEMERIS_TYPE":0,"CLASSIFICATION_TYPE":"U","NORAD_CAT_ID":49141,"ELEMENT_SET_NO":999,"REV_AT_EPOCH":21345,"BSTAR":4.1048e-5,"MEAN_MOTION_DOT":3.97e-6,"MEAN_MOTION_DDOT":0},{"OBJECT_NAME":"STARLINK-3109","OBJECT_ID":"2021-082P","EPOCH":"2025-07-27T20:11:29.188320","MEAN_MOTION":14.9751981,"ECCENTRICITY":0.0002702,"INCLINATION":70.0004,"RA_OF_ASC_NODE":121.4555,"ARG_OF_PERICENTER":270.775,"MEAN_ANOMALY":89.3099,"EPHEMERIS_TYPE":0,"CLASSIFICATION_TYPE":"U","NORAD_CAT_ID":49143,"ELEMENT_SET_NO":999,"REV_AT_EPOCH":21278,"BSTAR":-4.8133e-5,"MEAN_MOTION_DOT":-6.55e-6,"MEAN_MOTION_DDOT":0},{"OBJECT_NAME":"STARLINK-3100","OBJECT_ID":"2021-082Q","EPOCH":"2025-07-27T20:29:33.766656","MEAN_MOTION":14.98330588,"ECCENTRICITY":0.0002968,"INCLINATION":70.0019,"RA_OF_ASC_NODE":141.3362,"ARG_OF_PERICENTER":271.8473,"MEAN_ANOMALY":88.2346,"EPHEMERIS_TYPE":0,"CLASSIFICATION_TYPE":"U","NORAD_CAT_ID":49144,"ELEMENT_SET_NO":999,"REV_AT_EPOCH":21230,"BSTAR":2.0893e-5,"MEAN_MOTION_DOT":1.56e-6,"MEAN_MOTION_DDOT":0},{"OBJECT_NAME":"STARLINK-3119","OBJECT_ID":"2021-082R","EPOCH":"2025-07-27T20:52:55.684416","MEAN_MOTION":14.98331051,"ECCENTRICITY":0.0002879,"INCLINATION":70.0002,"RA_OF_ASC_NODE":101.2934,"ARG_OF_PERICENTER":267.9453,"MEAN_ANOMALY":92.1377,"EPHEMERIS_TYPE":0,"CLASSIFICATION_TYPE":"U","NORAD_CAT_ID":49145,"ELEMENT_SET_NO":999,"REV_AT_EPOCH":21328,"BSTAR":2.1834e-5,"MEAN_MOTION_DOT":1.68e-6,"MEAN_MOTION_DDOT":0},{"OBJECT_NAME":"STARLINK-3116","OBJECT_ID":"2021-082S","EPOCH":"2025-07-27T20:05:28.512384","MEAN_MOTION":14.97524054,"ECCENTRICITY":0.0002699,"INCLINATION":70.0002,"RA_OF_ASC_NODE":121.4691,"ARG_OF_PERICENTER":268.669,"MEAN_ANOMALY":91.416,"EPHEMERIS_TYPE":0,"CLASSIFICATION_TYPE":"U","NORAD_CAT_ID":49146,"ELEMENT_SET_NO":999,"REV_AT_EPOCH":21395,"BSTAR":2.6947e-5,"MEAN_MOTION_DOT":2.23e-6,"MEAN_MOTION_DDOT":0},{"OBJECT_NAME":"STARLINK-3071","OBJECT_ID":"2021-082T","EPOCH":"2025-07-27T21:10:57.447840","MEAN_MOTION":14.98327689,"ECCENTRICITY":0.0003073,"INCLINATION":70.0007,"RA_OF_ASC_NODE":101.2808,"ARG_OF_PERICENTER":266.7439,"MEAN_ANOMALY":93.3369,"EPHEMERIS_TYPE":0,"CLASSIFICATION_TYPE":"U","NORAD_CAT_ID":49147,"ELEMENT_SET_NO":999,"REV_AT_EPOCH":21446,"BSTAR":-3.5885e-5,"MEAN_MOTION_DOT":-5.21e-6,"MEAN_MOTION_DDOT":0},{"OBJECT_NAME":"STARLINK-3048","OBJECT_ID":"2021-082U","EPOCH":"2025-07-27T11:52:31.132128","MEAN_MOTION":14.97521094,"ECCENTRICITY":0.0002438,"INCLINATION":70.0005,"RA_OF_ASC_NODE":122.3109,"ARG_OF_PERICENTER":270.6571,"MEAN_ANOMALY":89.4308,"EPHEMERIS_TYPE":0,"CLASSIFICATION_TYPE":"U","NORAD_CAT_ID":49148,"ELEMENT_SET_NO":999,"REV_AT_EPOCH":21273,"BSTAR":6.8351e-6,"MEAN_MOTION_DOT":-1.2e-7,"MEAN_MOTION_DDOT":0},{"OBJECT_NAME":"STARLINK-3102","OBJECT_ID":"2021-082X","EPOCH":"2025-07-27T20:40:54.876864","MEAN_MOTION":14.98330636,"ECCENTRICITY":0.0002972,"INCLINATION":70.0001,"RA_OF_ASC_NODE":101.3209,"ARG_OF_PERICENTER":270.5224,"MEAN_ANOMALY":89.5594,"EPHEMERIS_TYPE":0,"CLASSIFICATION_TYPE":"U","NORAD_CAT_ID":49151,"ELEMENT_SET_NO":999,"REV_AT_EPOCH":21449,"BSTAR":-6.473e-6,"MEAN_MOTION_DOT":-1.7e-6,"MEAN_MOTION_DDOT":0},{"OBJECT_NAME":"STARLINK-3072","OBJECT_ID":"2021-082Z","EPOCH":"2025-07-27T20:28:54.047712","MEAN_MOTION":14.98327998,"ECCENTRICITY":0.0002791,"INCLINATION":69.9999,"RA_OF_ASC_NODE":101.348,"ARG_OF_PERICENTER":266.4757,"MEAN_ANOMALY":93.6082,"EPHEMERIS_TYPE":0,"CLASSIFICATION_TYPE":"U","NORAD_CAT_ID":49153,"ELEMENT_SET_NO":999,"REV_AT_EPOCH":21328,"BSTAR":5.2615e-5,"MEAN_MOTION_DOT":5.35e-6,"MEAN_MOTION_DDOT":0},{"OBJECT_NAME":"STARLINK-3068","OBJECT_ID":"2021-082AA","EPOCH":"2025-07-27T21:23:37.628736","MEAN_MOTION":14.97522912,"ECCENTRICITY":0.0002562,"INCLINATION":70.0005,"RA_OF_ASC_NODE":121.3161,"ARG_OF_PERICENTER":274.2176,"MEAN_ANOMALY":85.869,"EPHEMERIS_TYPE":0,"CLASSIFICATION_TYPE":"U","NORAD_CAT_ID":49154,"ELEMENT_SET_NO":999,"REV_AT_EPOCH":21387,"BSTAR":1.2608e-5,"MEAN_MOTION_DOT":5.5e-7,"MEAN_MOTION_DDOT":0},{"OBJECT_NAME":"STARLINK-3060","OBJECT_ID":"2021-082AB","EPOCH":"2025-07-27T10:46:04.579968","MEAN_MOTION":14.98332467,"ECCENTRICITY":0.0003132,"INCLINATION":70,"RA_OF_ASC_NODE":102.3615,"ARG_OF_PERICENTER":271.7484,"MEAN_ANOMALY":88.3316,"EPHEMERIS_TYPE":0,"CLASSIFICATION_TYPE":"U","NORAD_CAT_ID":49155,"ELEMENT_SET_NO":999,"REV_AT_EPOCH":21430,"BSTAR":-0.00020534,"MEAN_MOTION_DOT":-2.542e-5,"MEAN_MOTION_DDOT":0},{"OBJECT_NAME":"STARLINK-3085","OBJECT_ID":"2021-082AC","EPOCH":"2025-07-27T19:52:48.090432","MEAN_MOTION":14.98362173,"ECCENTRICITY":0.0002116,"INCLINATION":70.0004,"RA_OF_ASC_NODE":101.4059,"ARG_OF_PERICENTER":271.4737,"MEAN_ANOMALY":88.6179,"EPHEMERIS_TYPE":0,"CLASSIFICATION_TYPE":"U","NORAD_CAT_ID":49156,"ELEMENT_SET_NO":999,"REV_AT_EPOCH":21436,"BSTAR":0.00033499,"MEAN_MOTION_DOT":3.91e-5,"MEAN_MOTION_DDOT":0},{"OBJECT_NAME":"STARLINK-3051","OBJECT_ID":"2021-082AD","EPOCH":"2025-07-27T20:59:16.378368","MEAN_MOTION":14.98328141,"ECCENTRICITY":0.0002809,"INCLINATION":70.0008,"RA_OF_ASC_NODE":121.2883,"ARG_OF_PERICENTER":269.3438,"MEAN_ANOMALY":90.7399,"EPHEMERIS_TYPE":0,"CLASSIFICATION_TYPE":"U","NORAD_CAT_ID":49157,"ELEMENT_SET_NO":999,"REV_AT_EPOCH":21389,"BSTAR":-1.9053e-5,"MEAN_MOTION_DOT":-3.2e-6,"MEAN_MOTION_DDOT":0},{"OBJECT_NAME":"STARLINK-3083","OBJECT_ID":"2021-082AE","EPOCH":"2025-07-27T08:11:39.481152","MEAN_MOTION":15.3805746,"ECCENTRICITY":0.0006368,"INCLINATION":69.9802,"RA_OF_ASC_NODE":69.7884,"ARG_OF_PERICENTER":173.342,"MEAN_ANOMALY":186.7845,"EPHEMERIS_TYPE":0,"CLASSIFICATION_TYPE":"U","NORAD_CAT_ID":49158,"ELEMENT_SET_NO":999,"REV_AT_EPOCH":21512,"BSTAR":0.0012324,"MEAN_MOTION_DOT":0.0004646,"MEAN_MOTION_DDOT":0},{"OBJECT_NAME":"STARLINK-3056","OBJECT_ID":"2021-082AF","EPOCH":"2025-07-27T05:46:19.448832","MEAN_MOTION":14.98334761,"ECCENTRICITY":0.0003229,"INCLINATION":70.0002,"RA_OF_ASC_NODE":142.8935,"ARG_OF_PERICENTER":267.048,"MEAN_ANOMALY":93.031,"EPHEMERIS_TYPE":0,"CLASSIFICATION_TYPE":"U","NORAD_CAT_ID":49159,"ELEMENT_SET_NO":999,"REV_AT_EPOCH":21330,"BSTAR":7.8034e-5,"MEAN_MOTION_DOT":8.38e-6,"MEAN_MOTION_DDOT":0}]
