STARLINK-3058           
1 49138U 21082J   25208.86638080 -.00000193  00000+0 -83671-5 0  9998
2 49138  70.0004 141.3220 0002868 266.4251  93.6580 14.98330555212303
STARLINK-3057           
1 49139U 21082K   25208.89929887 -.00000237  00000+0 -12096-4 0  9991
2 49139  70.0005 101.2234 0002782 268.9675  91.1165 14.98326775213297
STARLINK-3093           
1 49141U 21082M   25208.52840856  .00000397  00000+0  41048-4 0  9996
2 49141  70.0002 142.1783 0003033 269.3637  90.7175 14.98328651213452
STARLINK-3109           
1 49143U 21082P   25208.84131005 -.00000655  00000+0 -48133-4 0  9993
2 49143  70.0004 121.4555 0002702 270.7750  89.3099 14.97519810212789
STARLINK-3100           
1 49144U 21082Q   25208.85386304  .00000156  00000+0  20893-4 0  9996
2 49144  70.0019 141.3362 0002968 271.8473  88.2346 14.98330588212306
STARLINK-3119           
1 49145U 21082R   25208.87008894  .00000168  00000+0  21834-4 0  9993
2 49145  70.0002 101.2934 0002879 267.9453  92.1377 14.98331051213286
STARLINK-3116           
1 49146U 21082S   25208.83713556  .00000223  00000+0  26947-4 0  9990
2 49146  70.0002 121.4691 0002699 268.6690  91.4160 14.97524054213954
STARLINK-3071           
1 49147U 21082T   25208.88260935 -.00000521  00000+0 -35885-4 0  9998
2 49147  70.0007 101.2808 0003073 266.7439  93.3369 14.98327689214468
STARLINK-3048           
1 49148U 21082U   25208.49480477 -.00000012  00000+0  68351-5 0  9990
2 49148  70.0005 122.3109 0002438 270.6571  89.4308 14.97521094212732
STARLINK-3102           
1 49151U 21082X   25208.86174626 -.00000170  00000+0 -64730-5 0  9994
2 49151  70.0001 101.3209 0002972 270.5224  89.5594 14.98330636214491
STARLINK-3072           
1 49153U 21082Z   25208.85340333  .00000535  00000+0  52615-4 0  9996
2 49153  69.9999 101.3480 0002791 266.4757  93.6082 14.98327998213282
STARLINK-3068           
1 49154U 21082AA  25208.89140774  .00000055  00000+0  12608-4 0  9993
2 49154  70.0005 121.3161 0002562 274.2176  85.8690 14.97522912213875
STARLINK-3060           
1 49155U 21082AB  25208.44866412 -.00002542  00000+0 -20534-3 0  9990
2 49155  70.0000 102.3615 0003132 271.7484  88.3316 14.98332467214309
STARLINK-3085           
1 49156U 21082AC  25208.82833438  .00003910  00000+0  33499-3 0  9997
2 49156  70.0004 101.4059 0002116 271.4737  88.6179 14.98362173214368
STARLINK-3051           
1 49157U 21082AD  25208.87449512 -.00000320  00000+0 -19053-4 0  9994
2 49157  70.0008 121.2883 0002809 269.3438  90.7399 14.98328141213893
STARLINK-3083           
1 49158U 21082AE  25208.34142918  .00046460  00000+0  12324-2 0  9992
2 49158  69.9802  69.7884 0006368 173.3420 186.7845 15.38057460215127
STARLINK-3056           
1 49159U 21082AF  25208.24050288  .00000838  00000+0  78034-4 0  9991
2 49159  70.0002 142.8935 0003229 267.0480  93.0310 14.98334761213305
